*******************************************************************************
Ephemeris / PORT_LOGIN Sun Nov 27 10:13:47 2011 Pasadena, USA    / Horizons    
*******************************************************************************
Target body name: Thebe (514)                     {source: JUP230}
Center body name: Solar System Barycenter (0)     {source: DE405}
Center-site name: BODY CENTER
*******************************************************************************
Start time      : A.D. 2001-Jan-01 10:00:00.0000 CT 
Stop  time      : A.D. 2001-Jan-02 00:00:00.0000 CT 
Step-size       : 60 minutes
*******************************************************************************
Center geodetic : 0.00000000,0.00000000,0.0000000 {E-lon(deg),Lat(deg),Alt(km)}
Center cylindric: 0.00000000,0.00000000,0.0000000 {E-lon(deg),Dxy(km),Dz(km)}
Center radii    : (undefined)                                                  
Output units    : AU-D                                                         
Output format   : 03
Reference frame : ICRF/J2000.0                                                 
Output type     : GEOMETRIC cartesian states
Coordinate systm: Earth Mean Equator and Equinox of Reference Epoch            
*******************************************************************************
JDCT 
   X     Y     Z
   VX    VY    VZ
   LT    RG    RR
*******************************************************************************
$$SOE
2451910.916666667 = A.D. 2001-Jan-01 10:00:00.0000 (CT)
   1.790629029576458E+00  4.346075672714152E+00  1.819359673112132E+00
  -6.216218154727494E-03  1.515279689470136E-02  7.181945366943833E-03
   2.911044336216993E-02  5.040317023230421E+00  1.344971015479276E-02
2451910.958333333 = A.D. 2001-Jan-01 11:00:00.0000 (CT)
   1.790259353513544E+00  4.346704094705495E+00  1.819653652601774E+00
  -1.150277139092947E-02  1.469971591854344E-02  6.784311843099832E-03
   2.911342747507000E-02  5.040833706362394E+00  1.103933840460762E-02
2451911.000000000 = A.D. 2001-Jan-01 12:00:00.0000 (CT)
   1.789678181719842E+00  4.347275221649772E+00  1.819913424010692E+00
  -1.623452045797983E-02  1.242578534255084E-02  5.555480301350321E-03
   2.911562164765127E-02  5.041213615568024E+00  6.957498238880257E-03
2451911.041666667 = A.D. 2001-Jan-01 13:00:00.0000 (CT)
   1.788924850193482E+00  4.347718157341472E+00  1.820107249038936E+00
  -1.964916233267113E-02  8.619286280758431E-03  3.657007124481988E-03
   2.911668765103499E-02  5.041398188332338E+00  1.781152276686882E-03
2451911.083333333 = A.D. 2001-Jan-01 14:00:00.0000 (CT)
   1.788067378464018E+00  4.347980006192642E+00  1.820212809987497E+00
  -2.115722610196369E-02  3.848387232130415E-03  1.375099663166599E-03
   2.911645512652546E-02  5.041357927961545E+00 -3.688462774142297E-03
2451911.125000000 = A.D. 2001-Jan-01 15:00:00.0000 (CT)
   1.787192298359773E+00  4.348036061107164E+00  1.820221610058500E+00
  -2.047896318936459E-02 -1.121999558006989E-03 -9.230572784599508E-04
   2.911496053224931E-02  5.041099146984589E+00 -8.561329062646365E-03
2451911.166666667 = A.D. 2001-Jan-01 16:00:00.0000 (CT)
   1.786389854689230E+00  4.347895111771775E+00  1.820140930866160E+00
  -1.772126447910353E-02 -5.476870579681144E-03 -2.860520088256535E-03
   2.911244736908356E-02  5.040664006271380E+00 -1.203740132642186E-02
2451911.208333333 = A.D. 2001-Jan-01 17:00:00.0000 (CT)
   1.785737943598690E+00  4.347598005888174E+00  1.819992593847412E+00
  -1.335826680537979E-02 -8.519178670819460E-03 -4.128394375083740E-03
   2.910932370021223E-02  5.040123159772024E+00 -1.357228248493221E-02
2451911.250000000 = A.D. 2001-Jan-01 18:00:00.0000 (CT)
   1.785288858248841E+00  4.347209752675540E+00  1.819808804520660E+00
  -8.120656822217737E-03 -9.802957015942481E-03 -4.544105258450968E-03
   2.910608722378332E-02  5.039562781249550E+00 -1.297386977544870E-02
2451911.291666667 = A.D. 2001-Jan-01 19:00:00.0000 (CT)
   1.785061824267715E+00  4.346807529413970E+00  1.819626287579982E+00
  -2.837781848461589E-03 -9.193367497710495E-03 -4.073870491126657E-03
   2.910323816277944E-02  5.039069481628535E+00 -1.040675012163337E-02
2451911.333333333 = A.D. 2001-Jan-01 20:00:00.0000 (CT)
   1.785042128709879E+00  4.346467803862290E+00  1.819480241747059E+00
   1.712772596630211E-03 -6.851679039800896E-03 -2.820376923640056E-03
   2.910120074541023E-02  5.038716713746518E+00 -6.322016696621318E-03
2451911.375000000 = A.D. 2001-Jan-01 21:00:00.0000 (CT)
   1.785185692300086E+00  4.346255221068584E+00  1.819399310696673E+00
   4.912558557540598E-03 -3.171114337364535E-03 -9.890315003158866E-04
   2.910026663081760E-02  5.038554976818491E+00 -1.351992040801671E-03
2451911.416666667 = A.D. 2001-Jan-01 22:00:00.0000 (CT)
   1.785427055204506E+00  4.346214618280358E+00  1.819402135258388E+00
   6.359656544951978E-03  1.304357962457624E-03  1.151987454592629E-03
   2.910056417269051E-02  5.038606494596785E+00  3.794630709155258E-03
2451911.458333333 = A.D. 2001-Jan-01 23:00:00.0000 (CT)
   1.785688911671231E+00  4.346366378170799E+00  1.819495519224429E+00
   5.888494455266288E-03  5.956742698361294E-03  3.308256023111864E-03
   2.910205089355914E-02  5.038863912335489E+00  8.419469783539789E-03
2451911.500000000 = A.D. 2001-Jan-02 00:00:00.0000 (CT)
   1.785891988930550E+00  4.346704747180705E+00  1.819673991927354E+00
   3.569128817099281E-03  1.015961379313284E-02  5.189709800702809E-03
   2.910452442822519E-02  5.039292191586673E+00  1.190216755364534E-02
$$EOE
*******************************************************************************
Coordinate system description:

  Earth Mean Equator and Equinox of Reference Epoch

    Reference epoch: J2000.0
    xy-plane: plane of the Earth's mean equator at the reference epoch
    x-axis  : out along ascending node of instantaneous plane of the Earth's
              orbit and the Earth's mean equator at the reference epoch
    z-axis  : along the Earth mean north pole at the reference epoch

Symbol meaning [1 AU=149597870.691 km, 1 day=86400.0 s]:

    JDCT     Epoch Julian Date, Coordinate Time
      X      x-component of position vector (AU)                               
      Y      y-component of position vector (AU)                               
      Z      z-component of position vector (AU)                               
      VX     x-component of velocity vector (AU/day)                           
      VY     y-component of velocity vector (AU/day)                           
      VZ     z-component of velocity vector (AU/day)                           
      LT     One-way down-leg Newtonian light-time (day)                       
      RG     Range; distance from coordinate center (AU)                       
      RR     Range-rate; radial velocity wrt coord. center (AU/day)            

Geometric states/elements have no aberration corrections applied.

 Computations by ...
     Solar System Dynamics Group, Horizons On-Line Ephemeris System
     4800 Oak Grove Drive, Jet Propulsion Laboratory
     Pasadena, CA  91109   USA
     Information: http://ssd.jpl.nasa.gov/
     Connect    : telnet://ssd.jpl.nasa.gov:6775  (via browser)
                  telnet ssd.jpl.nasa.gov 6775    (via command-line)
     Author     : Jon.Giorgini@jpl.nasa.gov
*******************************************************************************
